{
 "generated_at": "2026-07-09T08:28:01Z",
 "sources": [
  {
   "name": "CelesTrak",
   "url": "https://celestrak.org/NORAD/elements/",
   "license": "frei verfügbar; Attribution. Ursprünglich USSPACECOM/Space-Track."
  },
  {
   "name": "GCAT (J. McDowell, planet4589.org)",
   "url": "https://planet4589.org/space/gcat/",
   "license": "CC-BY 4.0"
  }
 ],
 "satellites": [
  {
   "norad": 41790,
   "name": "SCATSAT 1",
   "intl": "2016-059H",
   "group": "resource",
   "gcat": {
    "class": null,
    "category": null,
    "owner": null,
    "state": null
   },
   "omm": {
    "OBJECT_NAME": "SCATSAT 1",
    "OBJECT_ID": "2016-059H",
    "EPOCH": "2026-07-08T18:53:21.237504",
    "MEAN_MOTION": 14.79576568,
    "ECCENTRICITY": 0.00547405,
    "INCLINATION": 98.1179,
    "RA_OF_ASC_NODE": 253.7752,
    "ARG_OF_PERICENTER": 177.0507,
    "MEAN_ANOMALY": 183.1037,
    "EPHEMERIS_TYPE": 0,
    "CLASSIFICATION_TYPE": "U",
    "NORAD_CAT_ID": 41790,
    "ELEMENT_SET_NO": 999,
    "REV_AT_EPOCH": 10478,
    "BSTAR": 0.00012792062,
    "MEAN_MOTION_DOT": 0.00000925,
    "MEAN_MOTION_DDOT": 0
   }
  },
  {
   "norad": 22490,
   "name": "SCD 1",
   "intl": "1993-009B",
   "group": "resource",
   "gcat": {
    "class": "C",
    "category": "COM",
    "owner": "INPE",
    "state": "BR"
   },
   "omm": {
    "OBJECT_NAME": "SCD 1",
    "OBJECT_ID": "1993-009B",
    "EPOCH": "2026-07-08T08:53:04.991424",
    "MEAN_MOTION": 14.46126934,
    "ECCENTRICITY": 0.00418581,
    "INCLINATION": 24.9699,
    "RA_OF_ASC_NODE": 76.7812,
    "ARG_OF_PERICENTER": 2.5054,
    "MEAN_ANOMALY": 159.8564,
    "EPHEMERIS_TYPE": 0,
    "CLASSIFICATION_TYPE": "U",
    "NORAD_CAT_ID": 22490,
    "ELEMENT_SET_NO": 999,
    "REV_AT_EPOCH": 76418,
    "BSTAR": 0.000043942056,
    "MEAN_MOTION_DOT": 0.00000346,
    "MEAN_MOTION_DDOT": 0
   }
  },
  {
   "norad": 25504,
   "name": "SCD 2",
   "intl": "1998-060A",
   "group": "resource",
   "gcat": {
    "class": "C",
    "category": "COM",
    "owner": "INPE",
    "state": "BR"
   },
   "omm": {
    "OBJECT_NAME": "SCD 2",
    "OBJECT_ID": "1998-060A",
    "EPOCH": "2026-07-08T10:17:46.758624",
    "MEAN_MOTION": 14.4553342,
    "ECCENTRICITY": 0.00167305,
    "INCLINATION": 24.9961,
    "RA_OF_ASC_NODE": 301.1645,
    "ARG_OF_PERICENTER": 348.457,
    "MEAN_ANOMALY": 70.0412,
    "EPHEMERIS_TYPE": 0,
    "CLASSIFICATION_TYPE": "U",
    "NORAD_CAT_ID": 25504,
    "ELEMENT_SET_NO": 999,
    "REV_AT_EPOCH": 46340,
    "BSTAR": 0.000037738144,
    "MEAN_MOTION_DOT": 0.00000317,
    "MEAN_MOTION_DDOT": 0
   }
  },
  {
   "norad": 39634,
   "name": "SENTINEL-1A",
   "intl": "2014-016A",
   "group": "resource",
   "gcat": {
    "class": null,
    "category": null,
    "owner": null,
    "state": null
   },
   "omm": {
    "OBJECT_NAME": "SENTINEL-1A",
    "OBJECT_ID": "2014-016A",
    "EPOCH": "2026-07-08T23:13:10.105248",
    "MEAN_MOTION": 14.59198675,
    "ECCENTRICITY": 0.00014088,
    "INCLINATION": 98.1787,
    "RA_OF_ASC_NODE": 197.182,
    "ARG_OF_PERICENTER": 87.5922,
    "MEAN_ANOMALY": 272.5439,
    "EPHEMERIS_TYPE": 0,
    "CLASSIFICATION_TYPE": "U",
    "NORAD_CAT_ID": 39634,
    "ELEMENT_SET_NO": 999,
    "REV_AT_EPOCH": 65319,
    "BSTAR": -0.000025667552,
    "MEAN_MOTION_DOT": -0.00000167,
    "MEAN_MOTION_DDOT": 0
   }
  },
  {
   "norad": 62261,
   "name": "SENTINEL-1C",
   "intl": "2024-235A",
   "group": "sar",
   "gcat": {
    "class": "C",
    "category": "IMG-R",
    "owner": "COPERN/ESA",
    "state": "I-EU"
   },
   "omm": {
    "OBJECT_NAME": "SENTINEL-1C",
    "OBJECT_ID": "2024-235A",
    "EPOCH": "2026-07-09T00:09:53.885952",
    "MEAN_MOTION": 14.5919721,
    "ECCENTRICITY": 0.00013699,
    "INCLINATION": 98.1821,
    "RA_OF_ASC_NODE": 197.0043,
    "ARG_OF_PERICENTER": 90.0308,
    "MEAN_ANOMALY": 270.1049,
    "EPHEMERIS_TYPE": 0,
    "CLASSIFICATION_TYPE": "U",
    "NORAD_CAT_ID": 62261,
    "ELEMENT_SET_NO": 999,
    "REV_AT_EPOCH": 8459,
    "BSTAR": 0.000069104231,
    "MEAN_MOTION_DOT": 0.0000028,
    "MEAN_MOTION_DDOT": 0
   }
  },
  {
   "norad": 66315,
   "name": "SENTINEL-1D",
   "intl": "2025-251A",
   "group": "sar",
   "gcat": {
    "class": "C",
    "category": "IMG-R",
    "owner": "COPERN/ESA",
    "state": "I-EU"
   },
   "omm": {
    "OBJECT_NAME": "SENTINEL-1D",
    "OBJECT_ID": "2025-251A",
    "EPOCH": "2026-07-08T21:42:00.153216",
    "MEAN_MOTION": 14.59198118,
    "ECCENTRICITY": 0.00013626,
    "INCLINATION": 98.1829,
    "RA_OF_ASC_NODE": 196.958,
    "ARG_OF_PERICENTER": 90.0526,
    "MEAN_ANOMALY": 270.083,
    "EPHEMERIS_TYPE": 0,
    "CLASSIFICATION_TYPE": "U",
    "NORAD_CAT_ID": 66315,
    "ELEMENT_SET_NO": 999,
    "REV_AT_EPOCH": 3589,
    "BSTAR": 0.000007115742,
    "MEAN_MOTION_DOT": -1.2e-7,
    "MEAN_MOTION_DDOT": 0
   }
  },
  {
   "norad": 42063,
   "name": "SENTINEL-2B",
   "intl": "2017-013A",
   "group": "resource",
   "gcat": {
    "class": "C",
    "category": "IMG",
    "owner": "COPERN/ESA",
    "state": "I-EU"
   },
   "omm": {
    "OBJECT_NAME": "SENTINEL-2B",
    "OBJECT_ID": "2017-013A",
    "EPOCH": "2026-07-08T22:56:16.519200",
    "MEAN_MOTION": 14.3081365,
    "ECCENTRICITY": 0.00011992,
    "INCLINATION": 98.5681,
    "RA_OF_ASC_NODE": 264.4227,
    "ARG_OF_PERICENTER": 90.919,
    "MEAN_ANOMALY": 269.213,
    "EPHEMERIS_TYPE": 0,
    "CLASSIFICATION_TYPE": "U",
    "NORAD_CAT_ID": 42063,
    "ELEMENT_SET_NO": 999,
    "REV_AT_EPOCH": 48775,
    "BSTAR": -0.000010743673,
    "MEAN_MOTION_DOT": -7.2e-7,
    "MEAN_MOTION_DDOT": 0
   }
  },
  {
   "norad": 60989,
   "name": "SENTINEL-2C",
   "intl": "2024-157A",
   "group": "resource",
   "gcat": {
    "class": "C",
    "category": "IMG",
    "owner": "COPERN/ESA",
    "state": "I-EU"
   },
   "omm": {
    "OBJECT_NAME": "SENTINEL-2C",
    "OBJECT_ID": "2024-157A",
    "EPOCH": "2026-07-08T18:44:33.068256",
    "MEAN_MOTION": 14.3081452,
    "ECCENTRICITY": 0.00009421,
    "INCLINATION": 98.5685,
    "RA_OF_ASC_NODE": 264.2568,
    "ARG_OF_PERICENTER": 97.3692,
    "MEAN_ANOMALY": 262.7598,
    "EPHEMERIS_TYPE": 0,
    "CLASSIFICATION_TYPE": "U",
    "NORAD_CAT_ID": 60989,
    "ELEMENT_SET_NO": 999,
    "REV_AT_EPOCH": 9607,
    "BSTAR": 0.000038245535,
    "MEAN_MOTION_DOT": 5.7e-7,
    "MEAN_MOTION_DDOT": 0
   }
  },
  {
   "norad": 41335,
   "name": "SENTINEL-3A",
   "intl": "2016-011A",
   "group": "resource",
   "gcat": {
    "class": "C",
    "category": "IMG",
    "owner": "COPERN/ESA",
    "state": "I-EU"
   },
   "omm": {
    "OBJECT_NAME": "SENTINEL-3A",
    "OBJECT_ID": "2016-011A",
    "EPOCH": "2026-07-08T22:57:49.949568",
    "MEAN_MOTION": 14.26738595,
    "ECCENTRICITY": 0.00014024,
    "INCLINATION": 98.6239,
    "RA_OF_ASC_NODE": 257.0268,
    "ARG_OF_PERICENTER": 92.1258,
    "MEAN_ANOMALY": 268.0083,
    "EPHEMERIS_TYPE": 0,
    "CLASSIFICATION_TYPE": "U",
    "NORAD_CAT_ID": 41335,
    "ELEMENT_SET_NO": 999,
    "REV_AT_EPOCH": 54116,
    "BSTAR": 0.000038311854,
    "MEAN_MOTION_DOT": 4.9e-7,
    "MEAN_MOTION_DDOT": 0
   }
  }
 ]
}
